{
  "type": "FeatureCollection",
  "features": [
    {
      "type": "Feature",
      "properties": {
        "norad_id": 34070,
        "name": "COSMOS 2251 DEB",
        "group": "cosmos-2251-debris",
        "lat": 61.83774675741508,
        "lon": -116.0372248934817,
        "alt_km": 633.4632443037563,
        "timestamp": "2025-12-22T20:43:46.241845+00:00",
        "meta_object_name": "COSMOS 2251 DEB",
        "meta_object_id": "1993-036KH",
        "meta_epoch": "2025-12-21T13:24:18.092736",
        "meta_mean_motion": 14.7729737,
        "meta_eccentricity": 0.0018155,
        "meta_inclination": 74.0012,
        "meta_ra_of_asc_node": 98.9349,
        "meta_arg_of_pericenter": 215.9122,
        "meta_mean_anomaly": 159.1877,
        "meta_ephemeris_type": 0,
        "meta_classification_type": "U",
        "meta_norad_cat_id": 34070,
        "meta_element_set_no": 999,
        "meta_rev_at_epoch": 88741,
        "meta_bstar": 0.0022779,
        "meta_mean_motion_dot": 0.00016219,
        "meta_mean_motion_ddot": 0,
        "tle_line1": "1 34070U 93036KH  25355.55854274  .00016219  00000+0  22779-2 0  9992",
        "tle_line2": "2 34070  74.0012  98.9349 0018155 215.9122 159.1877 14.77297370887417"
      },
      "geometry": {
        "type": "Point",
        "coordinates": [
          -116.0372248934817,
          61.83774675741508
        ]
      }
    },
    {
      "type": "Feature",
      "properties": {
        "norad_id": 34114,
        "name": "COSMOS 2251 DEB",
        "group": "cosmos-2251-debris",
        "lat": -67.80539849800255,
        "lon": -19.82858576561356,
        "alt_km": 711.3307669097303,
        "timestamp": "2025-12-22T20:43:46.241855+00:00",
        "meta_object_name": "COSMOS 2251 DEB",
        "meta_object_id": "1993-036KK",
        "meta_epoch": "2025-12-22T11:42:10.189152",
        "meta_mean_motion": 14.5649918,
        "meta_eccentricity": 0.0047962,
        "meta_inclination": 74.0581,
        "meta_ra_of_asc_node": 25.3598,
        "meta_arg_of_pericenter": 16.6596,
        "meta_mean_anomaly": 98.2642,
        "meta_ephemeris_type": 0,
        "meta_classification_type": "U",
        "meta_norad_cat_id": 34114,
        "meta_element_set_no": 999,
        "meta_rev_at_epoch": 87943,
        "meta_bstar": 0.0016510078,
        "meta_mean_motion_dot": 7.437e-05,
        "meta_mean_motion_ddot": 0,
        "tle_line1": "1 34114U 93036KK  25356.48761793  .00007437  00000+0  16510-2 0  9995",
        "tle_line2": "2 34114  74.0581  25.3598 0047962  16.6596  98.2642 14.56499180879432"
      },
      "geometry": {
        "type": "Point",
        "coordinates": [
          -19.82858576561356,
          -67.80539849800255
        ]
      }
    },
    {
      "type": "Feature",
      "properties": {
        "norad_id": 34115,
        "name": "COSMOS 2251 DEB",
        "group": "cosmos-2251-debris",
        "lat": 18.13627883269375,
        "lon": 36.58837194296873,
        "alt_km": 640.2094103593408,
        "timestamp": "2025-12-22T20:43:46.241865+00:00",
        "meta_object_name": "COSMOS 2251 DEB",
        "meta_object_id": "1993-036KL",
        "meta_epoch": "2025-12-22T08:38:51.353376",
        "meta_mean_motion": 14.79607286,
        "meta_eccentricity": 0.00289645,
        "meta_inclination": 74.0053,
        "meta_ra_of_asc_node": 222.9719,
        "meta_arg_of_pericenter": 43.6291,
        "meta_mean_anomaly": 316.7168,
        "meta_ephemeris_type": 0,
        "meta_classification_type": "U",
        "meta_norad_cat_id": 34115,
        "meta_element_set_no": 999,
        "meta_rev_at_epoch": 89554,
        "meta_bstar": 0.0009465402,
        "meta_mean_motion_dot": 7.118e-05,
        "meta_mean_motion_ddot": 0,
        "tle_line1": "1 34115U 93036KL  25356.36031659  .00007118  00000+0  94654-3 0  9996",
        "tle_line2": "2 34115  74.0053 222.9719 0028964  43.6291 316.7168 14.79607286895544"
      },
      "geometry": {
        "type": "Point",
        "coordinates": [
          36.58837194296873,
          18.13627883269375
        ]
      }
    },
    {
      "type": "Feature",
      "properties": {
        "norad_id": 34116,
        "name": "COSMOS 2251 DEB",
        "group": "cosmos-2251-debris",
        "lat": -53.99512711677538,
        "lon": 6.872494154150001,
        "alt_km": 714.0468391356098,
        "timestamp": "2025-12-22T20:43:46.241875+00:00",
        "meta_object_name": "COSMOS 2251 DEB",
        "meta_object_id": "1993-036KM",
        "meta_epoch": "2025-12-22T13:18:40.372416",
        "meta_mean_motion": 14.53030682,
        "meta_eccentricity": 0.00118117,
        "meta_inclination": 74.0395,
        "meta_ra_of_asc_node": 164.2622,
        "meta_arg_of_pericenter": 240.3834,
        "meta_mean_anomaly": 180.6549,
        "meta_ephemeris_type": 0,
        "meta_classification_type": "U",
        "meta_norad_cat_id": 34116,
        "meta_element_set_no": 999,
        "meta_rev_at_epoch": 88629,
        "meta_bstar": 0.00074630397,
        "meta_mean_motion_dot": 3.058e-05,
        "meta_mean_motion_ddot": 0,
        "tle_line1": "1 34116U 93036KM  25356.55463394  .00003058  00000+0  74630-3 0  9994",
        "tle_line2": "2 34116  74.0395 164.2622 0011811 240.3834 180.6549 14.53030682886292"
      },
      "geometry": {
        "type": "Point",
        "coordinates": [
          6.872494154150001,
          -53.99512711677538
        ]
      }
    },
    {
      "type": "Feature",
      "properties": {
        "norad_id": 34117,
        "name": "COSMOS 2251 DEB",
        "group": "cosmos-2251-debris",
        "lat": -46.096822037769314,
        "lon": -52.17561671419531,
        "alt_km": 762.5509422310688,
        "timestamp": "2025-12-22T20:43:46.241885+00:00",
        "meta_object_name": "COSMOS 2251 DEB",
        "meta_object_id": "1993-036KN",
        "meta_epoch": "2025-12-22T07:36:54.593856",
        "meta_mean_motion": 14.40048585,
        "meta_eccentricity": 0.00549528,
        "meta_inclination": 74.0395,
        "meta_ra_of_asc_node": 326.1325,
        "meta_arg_of_pericenter": 39.7995,
        "meta_mean_anomaly": 320.717,
        "meta_ephemeris_type": 0,
        "meta_classification_type": "U",
        "meta_norad_cat_id": 34117,
        "meta_element_set_no": 999,
        "meta_rev_at_epoch": 88261,
        "meta_bstar": 0.00062276708,
        "meta_mean_motion_dot": 1.973e-05,
        "meta_mean_motion_ddot": 0,
        "tle_line1": "1 34117U 93036KN  25356.31729854  .00001973  00000+0  62277-3 0  9993",
        "tle_line2": "2 34117  74.0395 326.1325 0054952  39.7995 320.7170 14.40048585882619"
      },
      "geometry": {
        "type": "Point",
        "coordinates": [
          -52.17561671419531,
          -46.096822037769314
        ]
      }
    },
    {
      "type": "Feature",
      "properties": {
        "norad_id": 34118,
        "name": "COSMOS 2251 DEB",
        "group": "cosmos-2251-debris",
        "lat": -12.624429666637642,
        "lon": 52.508945918073444,
        "alt_km": 619.0961329192469,
        "timestamp": "2025-12-22T20:43:46.241896+00:00",
        "meta_object_name": "COSMOS 2251 DEB",
        "meta_object_id": "1993-036KP",
        "meta_epoch": "2025-12-22T02:52:25.784832",
        "meta_mean_motion": 14.9423226,
        "meta_eccentricity": 0.00600908,
        "meta_inclination": 73.9511,
        "meta_ra_of_asc_node": 230.318,
        "meta_arg_of_pericenter": 58.165,
        "meta_mean_anomaly": 93.962,
        "meta_ephemeris_type": 0,
        "meta_classification_type": "U",
        "meta_norad_cat_id": 34118,
        "meta_element_set_no": 999,
        "meta_rev_at_epoch": 89316,
        "meta_bstar": 0.0014639243,
        "meta_mean_motion_dot": 0.0001627,
        "meta_mean_motion_ddot": 0,
        "tle_line1": "1 34118U 93036KP  25356.11974288  .00016270  00000+0  14639-2 0  9999",
        "tle_line2": "2 34118  73.9511 230.3180 0060090  58.1650  93.9620 14.94232260893161"
      },
      "geometry": {
        "type": "Point",
        "coordinates": [
          52.508945918073444,
          -12.624429666637642
        ]
      }
    },
    {
      "type": "Feature",
      "properties": {
        "norad_id": 34120,
        "name": "COSMOS 2251 DEB",
        "group": "cosmos-2251-debris",
        "lat": 5.035097282094822,
        "lon": -159.86596697290716,
        "alt_km": 774.2864004148769,
        "timestamp": "2025-12-22T20:43:46.241906+00:00",
        "meta_object_name": "COSMOS 2251 DEB",
        "meta_object_id": "1993-036KR",
        "meta_epoch": "2025-12-22T14:08:44.069280",
        "meta_mean_motion": 13.98694406,
        "meta_eccentricity": 0.01823844,
        "meta_inclination": 73.9902,
        "meta_ra_of_asc_node": 199.1596,
        "meta_arg_of_pericenter": 24.6615,
        "meta_mean_anomaly": 40.5516,
        "meta_ephemeris_type": 0,
        "meta_classification_type": "U",
        "meta_norad_cat_id": 34120,
        "meta_element_set_no": 999,
        "meta_rev_at_epoch": 86118,
        "meta_bstar": 0.00026197259,
        "meta_mean_motion_dot": 4.1e-06,
        "meta_mean_motion_ddot": 0,
        "tle_line1": "1 34120U 93036KR  25356.58939895  .00000410  00000+0  26197-3 0  9990",
        "tle_line2": "2 34120  73.9902 199.1596 0182384  24.6615  40.5516 13.98694406861187"
      },
      "geometry": {
        "type": "Point",
        "coordinates": [
          -159.86596697290716,
          5.035097282094822
        ]
      }
    }
  ]
}